DUBAISAT-1              
1 35682U 09041B   26201.93656799  .00000497  00000+0  81140-4 0  9990
2 35682  98.0092 334.8328 0009496 329.0219  31.0428 14.75172251910079
OCEANSAT-2              
1 35931U 09051A   26202.22694718  .00000094  00000+0  90062-4 0  9990
2 35931  98.2326 185.6798 0017697 136.2220 224.0353 13.99656399884091
WORLDVIEW-2 (WV-2)      
1 35946U 09055A   26202.26085847  .00000058  00000+0  33653-4 0  9994
2 35946  98.4751 275.2465 0005495 115.4654 244.7103 14.37908103880545
SMOS                    
1 36036U 09059A   26202.24267203  .00000187  00000+0  73466-4 0  9994
2 36036  98.4431  29.0786 0001208  98.3893 261.7432 14.39738375878358
YAOGAN-7                
1 36110U 09069A   26202.14122819  .00000271  00000+0  44785-4 0  9996
2 36110  98.0025  87.7916 0023218 291.2380  68.6351 14.78039004894642
TANDEM-X                
1 36605U 10030A   26201.45521463  .00000100  00000+0  79367-5 0  9992
2 36605  97.4460 208.6898 0001899  95.3384 264.8068 15.19149380891690
CARTOSAT-2B             
1 36795U 10035A   26202.31042912  .00000465  00000+0  70546-4 0  9993
2 36795  97.9931 252.6380 0012734  82.6418 277.6240 14.78655419864895
YAOGAN-10               
1 36834U 10038A   26202.30893941  .00001155  00000+0  14021-3 0  9997
2 36834  97.8972 225.4415 0001611  85.7751  11.2747 14.85440748862275
COSMO-SKYMED 4          
1 37216U 10060A   26202.26654689  .00000183  00000+0  29503-4 0  9998
2 37216  97.8904  25.3734 0001522  87.9965 272.1423 14.82150582849611
RESOURCESAT-2           
1 37387U 11015A   26202.22470292  .00000027  00000+0  32659-4 0  9993
2 37387  98.7626 269.4282 0011896 154.4773 205.6994 14.21600476791011
HAIYANG-2A              
1 37781U 11043A   26202.26836374  .00000110  00000+0  16567-3 0  9995
2 37781  99.3410 204.1579 0001762  16.6546 343.4660 13.73154420751331
RASAT                   
1 37791U 11044D   26202.25799951  .00000459  00000+0  87881-4 0  9999
2 37791  98.0576 293.1355 0021957  84.9533 359.7389 14.68197049798184
SRMSAT                  
1 37841U 11058D   26202.30209510  .00000342  00000+0  41537-4 0  9992
2 37841  19.9702 212.9798 0011593 218.6587 248.7511 14.11581882762649
PLEIADES 1A             
1 38012U 11076F   26202.29496845  .00000063  00000+0  23392-4 0  9999
2 38012  98.1959 276.9373 0001578  78.3720  12.0267 14.58548582776965
ZIYUAN 1-02C (ZY 1-02C) 
1 38038U 11079A   26202.30936505  .00000162  00000+0  67486-4 0  9996
2 38038  98.4051 268.9025 0006057 194.2640 254.7266 14.38238645764112
ARIRANG-3 (KOMPSAT-3)   
1 38338U 12025B   26202.31608684  .00000302  00000+0  69170-4 0  9994
2 38338  98.1189 159.1915 0005835  21.9678 338.1772 14.62232557756330
EXACTVIEW-1 (ADS-1B)    
1 38709U 12039C   26201.94421663  .00000051  00000+0  41532-4 0  9992
2 38709  98.9809 320.1021 0011883  76.4362 283.8140 14.24993207727519
SPOT 6                  
1 38755U 12047A   26202.29317236 -.00000037  00000+0  18053-5 0  9999
2 38755  98.2098 269.1997 0001112  93.6547 266.4779 14.58540183738028
PLEIADES 1B             
1 39019U 12068A   26202.31178815 -.00000119  00000+0 -15762-4 0  9992
2 39019  98.1930 276.8911 0001468  78.6323 281.5042 14.58535496725822
GOKTURK 2               
1 39030U 12073A   26202.32599979  .00000331  00000+0  55451-4 0  9993
2 39030  97.6815  38.0445 0001094 104.3245 255.8087 14.75571625729545
LANDSAT 8               
1 39084U 13008A   26202.22237070  .00000206  00000+0  55898-4 0  9997
2 39084  98.2285 271.9505 0001336  91.8421 268.2931 14.57096996702856
SARAL                   
1 39086U 13009A   26202.25742134  .00000043  00000+0  31816-4 0  9998
2 39086  98.5560  28.3941 0002055 152.9473 207.1818 14.32896767700480
GAOFEN-1                
1 39150U 13018A   26202.28574544 -.00000030  00000+0  29703-5 0  9991
2 39150  97.9076 273.6579 0017626 152.1365 208.0792 14.76521185713270
VNREDSAT 1              
1 39160U 13021B   26202.31046578  .00000122  00000+0  31210-4 0  9997
2 39160  97.9057 254.4140 0001539  82.7137 277.4242 14.64886890705288
ARIRANG-5 (KOMPSAT-5)   
1 39227U 13042A   26202.15185405  .00000584  00000+0  46046-4 0  9994
2 39227  97.6201  28.3750 0004511  40.2701 319.8858 15.04498604708963
SKYSAT-A                
1 39418U 13066C   26202.11753306  .00001920  00000+0  11144-3 0  9994
2 39418  97.3797 250.4333 0021024 192.3397 167.7323 15.13136302693611
DUBAISAT-2              
1 39419U 13066D   26202.25774397  .00003101  00000+0  19249-3 0  9990
2 39419  97.4587 191.5178 0009272 277.7132  82.3045 15.10398561691534
GPM-CORE                
1 39574U 14009C   26202.25990012  .00004563  00000+0  10121-3 0  9997
2 39574  64.9698 193.9592 0010868 263.7770  96.2133 15.45088990703075
SENTINEL-1A             
1 39634U 14016A   26202.17326110 -.00000107  00000+0 -13011-4 0  9999
2 39634  98.1736 209.2075 0001435  84.3728 275.7635 14.59173385654973
KAZEOSAT 1              
1 39731U 14024A   26202.29818312  .00000016  00000+0  17733-4 0  9991
2 39731  98.3187 273.8939 0001197  89.6267 270.5060 14.42038596643474
