OBJECT_NAME,OBJECT_ID,EPOCH,MEAN_MOTION,ECCENTRICITY,INCLINATION,RA_OF_ASC_NODE,ARG_OF_PERICENTER,MEAN_ANOMALY,EPHEMERIS_TYPE,CLASSIFICATION_TYPE,NORAD_CAT_ID,ELEMENT_SET_NO,REV_AT_EPOCH,BSTAR,MEAN_MOTION_DOT,MEAN_MOTION_DDOT
DUBAISAT-1,2009-041B,2026-07-20T22:28:39.474336,14.75172251,.00094965,98.0092,334.8328,329.0219,31.0428,0,U,35682,999,91007,.81139521E-4,.497E-5,0
OCEANSAT-2,2009-051A,2026-07-21T05:26:48.236352,13.99656399,.00176977,98.2326,185.6798,136.2220,224.0353,0,U,35931,999,88409,.90062366E-4,.94E-6,0
WORLDVIEW-2 (WV-2),2009-055A,2026-07-21T06:15:38.171808,14.37908103,.00054959,98.4751,275.2465,115.4654,244.7103,0,U,35946,999,88054,.33653161E-4,.58E-6,0
SMOS,2009-059A,2026-07-21T05:49:26.863392,14.39738375,.00012081,98.4431,29.0786,98.3893,261.7432,0,U,36036,999,87835,.73466428E-4,.187E-5,0
YAOGAN-7,2009-069A,2026-07-21T03:23:22.115616,14.78039004,.00232181,98.0025,87.7916,291.2380,68.6351,0,U,36110,999,89464,.4478545E-4,.271E-5,0
TANDEM-X,2010-030A,2026-07-20T10:55:30.544032,15.19149380,.00018995,97.4460,208.6898,95.3384,264.8068,0,U,36605,999,89169,.7936673E-5,.1E-5,0
CARTOSAT-2B,2010-035A,2026-07-21T07:27:01.075968,14.78655419,.00127347,97.9931,252.6380,82.6418,277.6240,0,U,36795,999,86489,.7054628E-4,.465E-5,0
YAOGAN-10,2010-038A,2026-07-21T07:24:52.365024,14.85440748,.00016118,97.8972,225.4415,85.7751,11.2747,0,U,36834,999,86227,.14021049E-3,.1155E-4,0
COSMO-SKYMED 4,2010-060A,2026-07-21T06:23:49.651296,14.82150582,.0001522,97.8904,25.3734,87.9965,272.1423,0,U,37216,999,84961,.29502729E-4,.183E-5,0
RESOURCESAT-2,2011-015A,2026-07-21T05:23:34.332288,14.21600476,.00118963,98.7626,269.4282,154.4773,205.6994,0,U,37387,999,79101,.32658624E-4,.27E-6,0
HAIYANG-2A,2011-043A,2026-07-21T06:26:26.627136,13.73154420,.00017624,99.3410,204.1579,16.6546,343.4660,0,U,37781,999,75133,.16566885E-3,.11E-5,0
RASAT,2011-044D,2026-07-21T06:11:31.157664,14.68197049,.00219575,98.0576,293.1355,84.9533,359.7389,0,U,37791,999,79818,.878812E-4,.459E-5,0
SRMSAT,2011-058D,2026-07-21T07:15:01.016640,14.11581882,.00115937,19.9702,212.9798,218.6587,248.7511,0,U,37841,999,76264,.41536914E-4,.342E-5,0
PLEIADES 1A,2011-076F,2026-07-21T07:04:45.274080,14.58548582,.0001578,98.1959,276.9373,78.3720,12.0267,0,U,38012,999,77696,.23392437E-4,.63E-6,0
ZIYUAN 1-02C (ZY 1-02C),2011-079A,2026-07-21T07:25:29.140320,14.38238645,.00060579,98.4051,268.9025,194.2640,254.7266,0,U,38038,999,76411,.67485555E-4,.162E-5,0
ARIRANG-3 (KOMPSAT-3),2012-025B,2026-07-21T07:35:09.902976,14.62232557,.00058359,98.1189,159.1915,21.9678,338.1772,0,U,38338,999,75633,.69169661E-4,.302E-5,0
EXACTVIEW-1 (ADS-1B),2012-039C,2026-07-20T22:39:40.316832,14.24993207,.00118834,98.9809,320.1021,76.4362,283.8140,0,U,38709,999,72751,.41532253E-4,.51E-6,0
SPOT 6,2012-047A,2026-07-21T07:02:10.091904,14.58540183,.00011129,98.2098,269.1997,93.6547,266.4779,0,U,38755,999,73802,.1805272E-5,-.37E-6,0
PLEIADES 1B,2012-068A,2026-07-21T07:28:58.496160,14.58535496,.0001468,98.1930,276.8911,78.6323,281.5042,0,U,39019,999,72582,-.15761662E-4,-.119E-5,0
GOKTURK 2,2012-073A,2026-07-21T07:49:26.381856,14.75571625,.00010942,97.6815,38.0445,104.3245,255.8087,0,U,39030,999,72954,.55451494E-4,.331E-5,0
LANDSAT 8,2013-008A,2026-07-21T05:20:12.828480,14.57096996,.00013361,98.2285,271.9505,91.8421,268.2931,0,U,39084,999,70285,.55898499E-4,.206E-5,0
SARAL,2013-009A,2026-07-21T06:10:41.203776,14.32896767,.00020553,98.5560,28.3941,152.9473,207.1818,0,U,39086,999,70048,.31816032E-4,.43E-6,0
GAOFEN-1,2013-018A,2026-07-21T06:51:28.406016,14.76521185,.00176262,97.9076,273.6579,152.1365,208.0792,0,U,39150,999,71327,.297034E-5,-.3E-6,0
VNREDSAT 1,2013-021B,2026-07-21T07:27:04.243392,14.64886890,.00015397,97.9057,254.4140,82.7137,277.4242,0,U,39160,999,70528,.31209861E-4,.122E-5,0
ARIRANG-5 (KOMPSAT-5),2013-042A,2026-07-21T03:38:40.189920,15.04498604,.00045112,97.6201,28.3750,40.2701,319.8858,0,U,39227,999,70896,.4604609E-4,.584E-5,0
SKYSAT-A,2013-066C,2026-07-21T02:49:14.856384,15.13136302,.00210244,97.3797,250.4333,192.3397,167.7323,0,U,39418,999,69361,.11144325E-3,.192E-4,0
DUBAISAT-2,2013-066D,2026-07-21T06:11:09.079008,15.10398561,.00092726,97.4587,191.5178,277.7132,82.3045,0,U,39419,999,69153,.19248691E-3,.3101E-4,0
GPM-CORE,2014-009C,2026-07-21T06:14:15.370368,15.45088990,.00108681,64.9698,193.9592,263.7770,96.2133,0,U,39574,999,70307,.10121302E-3,.4563E-4,0
SENTINEL-1A,2014-016A,2026-07-21T04:09:29.759040,14.59173385,.0001435,98.1736,209.2075,84.3728,275.7635,0,U,39634,999,65497,-.13010704E-4,-.107E-5,0
KAZEOSAT 1,2014-024A,2026-07-21T07:09:23.021568,14.42038596,.00011973,98.3187,273.8939,89.6267,270.5060,0,U,39731,999,64347,.17733134E-4,.16E-6,0
